CTC2_L_00185001-01
1 24397U 22149FC  26037.47792824  .00000000  00000+0  00000-0 0  9993
2 24397  85.0000   0.0000 0000000   0.0000   0.0000 14.79785919    11
CTC2_L_00185001-02
1 24398U 23665OK  26037.47792824  .00000000  00000+0  00000-0 0  9998
2 24398  85.0000   0.0000 0000000   0.0000  90.0000 14.79785919    11
CTC2_L_00185001-03
1 24399U 25701TA  26037.47792824  .00000000  00000+0  00000-0 0  9992
2 24399  85.0000   0.0000 0000000   0.0000 180.0000 14.79785919    12
CTC2_L_00185001-04
1 24400U 23812DQ  26037.47792824  .00000000  00000+0  00000-0 0  9996
2 24400  85.0000   0.0000 0000000   0.0000 270.0000 14.79785919    15
CTC2_L_00185002-01
1 24401U 23466WZ  26037.47792824  .00000000  00000+0  00000-0 0  9992
2 24401  85.0000  12.0000 0000000   0.0000  12.0000 14.79785919    13
CTC2_L_00185002-02
1 24402U 22097XB  26037.47792824  .00000000  00000+0  00000-0 0  9992
2 24402  85.0000  12.0000 0000000   0.0000 102.0000 14.79785919    14
CTC2_L_00185002-03
1 24403U 26695HQ  26037.47792824  .00000000  00000+0  00000-0 0  9991
2 24403  85.0000  12.0000 0000000   0.0000 192.0000 14.79785919    14
CTC2_L_00185002-04
1 24404U 25407GR  26037.47792824  .00000000  00000+0  00000-0 0  9992
2 24404  85.0000  12.0000 0000000   0.0000 282.0000 14.79785919    15
CTC2_L_00185003-01
1 24405U 23876QV  26037.47792824  .00000000  00000+0  00000-0 0  9991
2 24405  85.0000  24.0000 0000000   0.0000  24.0000 14.79785919    13
CTC2_L_00185003-02
1 24406U 25240LK  26037.47792824  .00000000  00000+0  00000-0 0  9999
2 24406  85.0000  24.0000 0000000   0.0000 114.0000 14.79785919    14
CTC2_L_00185003-03
1 24407U 22047ZQ  26037.47792824  .00000000  00000+0  00000-0 0  9992
2 24407  85.0000  24.0000 0000000   0.0000 204.0000 14.79785919    15
CTC2_L_00185003-04
1 24408U 25939CB  26037.47792824  .00000000  00000+0  00000-0 0  9996
2 24408  85.0000  24.0000 0000000   0.0000 294.0000 14.79785919    15
CTC2_L_00185004-01
1 24409U 23377VN  26037.47792824  .00000000  00000+0  00000-0 0  9991
2 24409  85.0000  36.0000 0000000   0.0000  36.0000 14.79785919    13
CTC2_L_00185004-02
1 24410U 23585LO  26037.47792824  .00000000  00000+0  00000-0 0  9994
2 24410  85.0000  36.0000 0000000   0.0000 126.0000 14.79785919    15
CTC2_L_00185004-03
1 24411U 23317AA  26037.47792824  .00000000  00000+0  00000-0 0  9998
2 24411  85.0000  36.0000 0000000   0.0000 216.0000 14.79785919    16
CTC2_L_00185004-04
1 24412U 23790AE  26037.47792824  .00000000  00000+0  00000-0 0  9994
2 24412  85.0000  36.0000 0000000   0.0000 306.0000 14.79785919    17
CTC2_L_00185005-01
1 24413U 25141GJ  26037.47792824  .00000000  00000+0  00000-0 0  9997
2 24413  85.0000  48.0000 0000000   0.0000  48.0000 14.79785919    14
CTC2_L_00185005-02
1 24414U 23151LP  26037.47792824  .00000000  00000+0  00000-0 0  9997
2 24414  85.0000  48.0000 0000000   0.0000 138.0000 14.79785919    15
CTC2_L_00185005-03
1 24415U 24028FA  26037.47792824  .00000000  00000+0  00000-0 0  9992
2 24415  85.0000  48.0000 0000000   0.0000 228.0000 14.79785919    16
CTC2_L_00185005-04
1 24416U 23318HH  26037.47792824  .00000000  00000+0  00000-0 0  9994
2 24416  85.0000  48.0000 0000000   0.0000 318.0000 14.79785919    17
CTC2_L_00185006-01
1 24417U 23896IZ  26037.47792824  .00000000  00000+0  00000-0 0  9996
2 24417  85.0000  60.0000 0000000   0.0000  60.0000 14.79785919    16
CTC2_L_00185006-02
1 24418U 26667UW  26037.47792824  .00000000  00000+0  00000-0 0  9996
2 24418  85.0000  60.0000 0000000   0.0000 150.0000 14.79785919    17
CTC2_L_00185006-03
1 24419U 25054MF  26037.47792824  .00000000  00000+0  00000-0 0  9996
2 24419  85.0000  60.0000 0000000   0.0000 240.0000 14.79785919    18
CTC2_L_00185006-04
1 24420U 23381HR  26037.47792824  .00000000  00000+0  00000-0 0  9999
2 24420  85.0000  60.0000 0000000   0.0000 330.0000 14.79785919    10
CTC2_L_00185007-01
1 24421U 24381VX  26037.47792824  .00000000  00000+0  00000-0 0  9991
2 24421  85.0000  72.0000 0000000   0.0000  72.0000 14.79785919    17
CTC2_L_00185007-02
1 24422U 24121LL  26037.47792824  .00000000  00000+0  00000-0 0  9994
2 24422  85.0000  72.0000 0000000   0.0000 162.0000 14.79785919    18
CTC2_L_00185007-03
1 24423U 24747WF  26037.47792824  .00000000  00000+0  00000-0 0  9999
2 24423  85.0000  72.0000 0000000   0.0000 252.0000 14.79785919    19
CTC2_L_00185007-04
1 24424U 22057II  26037.47792824  .00000000  00000+0  00000-0 0  9992
2 24424  85.0000  72.0000 0000000   0.0000 342.0000 14.79785919    10
CTC2_L_00185008-01
1 24425U 23728HV  26037.47792824  .00000000  00000+0  00000-0 0  9999
2 24425  85.0000  84.0000 0000000   0.0000  84.0000 14.79785919    17
CTC2_L_00185008-02
1 24426U 23921CO  26037.47792824  .00000000  00000+0  00000-0 0  9995
2 24426  85.0000  84.0000 0000000   0.0000 174.0000 14.79785919    18
CTC2_L_00185008-03
1 24427U 25451YM  26037.47792824  .00000000  00000+0  00000-0 0  9996
2 24427  85.0000  84.0000 0000000   0.0000 264.0000 14.79785919    19
CTC2_L_00185008-04
1 24428U 23890UG  26037.47792824  .00000000  00000+0  00000-0 0  9992
2 24428  85.0000  84.0000 0000000   0.0000 354.0000 14.79785919    10
CTC2_L_00185009-01
1 24429U 22398KL  26037.47792824  .00000000  00000+0  00000-0 0  9995
2 24429  85.0000  96.0000 0000000   0.0000  96.0000 14.79785919    17
CTC2_L_00185009-02
1 24430U 24336LX  26037.47792824  .00000000  00000+0  00000-0 0  9991
2 24430  85.0000  96.0000 0000000   0.0000 186.0000 14.79785919    19
CTC2_L_00185009-03
1 24431U 24269VZ  26037.47792824  .00000000  00000+0  00000-0 0  9997
2 24431  85.0000  96.0000 0000000   0.0000 276.0000 14.79785919    10
CTC2_L_00185009-04
1 24432U 23874XZ  26037.47792824  .00000000  00000+0  00000-0 0  9999
2 24432  85.0000  96.0000 0000000   0.0000   6.0000 14.79785919    12
CTC2_L_00185010-01
1 24433U 26379FC  26037.47792824  .00000000  00000+0  00000-0 0  9993
2 24433  85.0000 108.0000 0000000   0.0000 108.0000 14.79785919    10
CTC2_L_00185010-02
1 24434U 23337IH  26037.47792824  .00000000  00000+0  00000-0 0  9995
2 24434  85.0000 108.0000 0000000   0.0000 198.0000 14.79785919    10
CTC2_L_00185010-03
1 24435U 26995VN  26037.47792824  .00000000  00000+0  00000-0 0  9999
2 24435  85.0000 108.0000 0000000   0.0000 288.0000 14.79785919    11
CTC2_L_00185010-04
1 24436U 25140LU  26037.47792824  .00000000  00000+0  00000-0 0  9991
2 24436  85.0000 108.0000 0000000   0.0000  18.0000 14.79785919    13
CTC2_L_00185011-01
1 24437U 24656MR  26037.47792824  .00000000  00000+0  00000-0 0  9993
2 24437  85.0000 120.0000 0000000   0.0000 120.0000 14.79785919    12
CTC2_L_00185011-02
1 24438U 22522NA  26037.47792824  .00000000  00000+0  00000-0 0  9994
2 24438  85.0000 120.0000 0000000   0.0000 210.0000 14.79785919    13
CTC2_L_00185011-03
1 24439U 25386EC  26037.47792824  .00000000  00000+0  00000-0 0  9996
2 24439  85.0000 120.0000 0000000   0.0000 300.0000 14.79785919    14
CTC2_L_00185011-04
1 24440U 24190QM  26037.47792824  .00000000  00000+0  00000-0 0  9990
2 24440  85.0000 120.0000 0000000   0.0000  30.0000 14.79785919    16
CTC2_L_00185012-01
1 24441U 24070FU  26037.47792824  .00000000  00000+0  00000-0 0  9998
2 24441  85.0000 132.0000 0000000   0.0000 132.0000 14.79785919    13
CTC2_L_00185012-02
1 24442U 26510SX  26037.47792824  .00000000  00000+0  00000-0 0  9990
2 24442  85.0000 132.0000 0000000   0.0000 222.0000 14.79785919    14
CTC2_L_00185012-03
1 24443U 26769HI  26037.47792824  .00000000  00000+0  00000-0 0  9997
2 24443  85.0000 132.0000 0000000   0.0000 312.0000 14.79785919    15
CTC2_L_00185012-04
1 24444U 25245HG  26037.47792824  .00000000  00000+0  00000-0 0  9996
2 24444  85.0000 132.0000 0000000   0.0000  42.0000 14.79785919    16
CTC2_L_00185013-01
1 24445U 23661EW  26037.47792824  .00000000  00000+0  00000-0 0  9997
2 24445  85.0000 144.0000 0000000   0.0000 144.0000 14.79785919    13
CTC2_L_00185013-02
1 24446U 25731JP  26037.47792824  .00000000  00000+0  00000-0 0  9998
2 24446  85.0000 144.0000 0000000   0.0000 234.0000 14.79785919    14
CTC2_L_00185013-03
1 24447U 22364WK  26037.47792824  .00000000  00000+0  00000-0 0  9998
2 24447  85.0000 144.0000 0000000   0.0000 324.0000 14.79785919    15
CTC2_L_00185013-04
1 24448U 22554UL  26037.47792824  .00000000  00000+0  00000-0 0  9990
2 24448  85.0000 144.0000 0000000   0.0000  54.0000 14.79785919    16
CTC2_L_00185014-01
1 24449U 24489SI  26037.47792824  .00000000  00000+0  00000-0 0  9990
2 24449  85.0000 156.0000 0000000   0.0000 156.0000 14.79785919    13
CTC2_L_00185014-02
1 24450U 25880M   26037.47792824  .00000000  00000+0  00000-0 0  9998
2 24450  85.0000 156.0000 0000000   0.0000 246.0000 14.79785919    15
CTC2_L_00185014-03
1 24451U 23346SE  26037.47792824  .00000000  00000+0  00000-0 0  9994
2 24451  85.0000 156.0000 0000000   0.0000 336.0000 14.79785919    16
CTC2_L_00185014-04
1 24452U 25407OC  26037.47792824  .00000000  00000+0  00000-0 0  9995
2 24452  85.0000 156.0000 0000000   0.0000  66.0000 14.79785919    17
CTC2_L_00185015-01
1 24453U 23053FD  26037.47792824  .00000000  00000+0  00000-0 0  9991
2 24453  85.0000 168.0000 0000000   0.0000 168.0000 14.79785919    14
CTC2_L_00185015-02
1 24454U 23041FQ  26037.47792824  .00000000  00000+0  00000-0 0  9999
2 24454  85.0000 168.0000 0000000   0.0000 258.0000 14.79785919    15
CTC2_L_00185015-03
1 24455U 23138ZJ  26037.47792824  .00000000  00000+0  00000-0 0  9997
2 24455  85.0000 168.0000 0000000   0.0000 348.0000 14.79785919    16
CTC2_L_00185015-04
1 24456U 22681XF  26037.47792824  .00000000  00000+0  00000-0 0  9990
2 24456  85.0000 168.0000 0000000   0.0000  78.0000 14.79785919    17
CTC2_L_00185016-01
1 24457U 24072GO  26037.47792824  .00000000  00000+0  00000-0 0  9997
2 24457  85.0000 180.0000 0000000   0.0000 180.0000 14.79785919    16
CTC2_L_00185016-02
1 24458U 24557RE  26037.47792824  .00000000  00000+0  00000-0 0  9996
2 24458  85.0000 180.0000 0000000   0.0000 270.0000 14.79785919    17
